KUIPER-00144            
1 67133U 25301A   26013.13800266  .00022306  00000+0  63165-3 0  9995
2 67133  51.8713 333.6817 0006540 175.6841 184.4202 15.36179867  5194
KUIPER-00164            
1 67134U 25301B   26013.12625796  .00014323  00000+0  40355-3 0  9994
2 67134  51.8728 333.6080 0002963 157.3871 202.7247 15.36681435  5370
KUIPER-00175            
1 67135U 25301C   26013.18199425  .00021931  00000+0  59982-3 0  9995
2 67135  51.8748 333.2308 0003032 106.0790 254.0530 15.37288652  5270
KUIPER-00179            
1 67136U 25301D   26013.12373762  .00017718  00000+0  49379-3 0  9995
2 67136  51.8749 333.5909 0003399 133.2231 226.9040 15.36849116  5372
KUIPER-00181            
1 67137U 25301E   26013.15800483  .00016334  00000+0  48524-3 0  9998
2 67137  51.8657 333.8009 0010633 201.7937 158.2598 15.34863150  5353
KUIPER-00183            
1 67138U 25301F   26013.16251426  .00022230  00000+0  65671-3 0  9991
2 67138  51.8625 333.8242 0011511 202.3231 157.7254 15.34812188  5367
KUIPER-00184            
1 67139U 25301G   26013.15630833  .00021292  00000+0  62377-3 0  9991
2 67139  51.8640 333.7867 0009505 200.8146 159.2454 15.35123079  5471
KUIPER-00186            
1 67140U 25301H   26013.14447311  .00020847  00000+0  59557-3 0  9990
2 67140  51.8705 333.7218 0007978 186.8007 173.2872 15.35937935  5199
KUIPER-00187            
1 67141U 25301J   26013.16672453  .00003027  00000+0  10548-3 0  9998
2 67141  51.8737 333.5305 0005465 175.1344 343.9338 15.32867119  4986
KUIPER-00188            
1 67142U 25301K   26013.14651119  .00025474  00000+0  72947-3 0  9994
2 67142  51.8724 333.7370 0007454 190.7079 169.3749 15.35745550  5192
KUIPER-00191            
1 67143U 25301L   26013.07795429  .00021714  00000+0  61979-3 0  9996
2 67143  51.8704 334.0251 0006728 185.8684 174.2225 15.35947522  5213
KUIPER-00196            
1 67144U 25301M   26013.12824550  .00022952  00000+0  64054-3 0  9993
2 67144  51.8747 333.6210 0003818 146.8273 213.2953 15.36630342  5198
