CCSDS_OMM_VERS = 2.0
CREATION_DATE  = 
ORIGINATOR     = 

OBJECT_NAME    = KUIPER-00144
OBJECT_ID      = 2025-301A
CENTER_NAME    = EARTH
REF_FRAME      = TEME
TIME_SYSTEM    = UTC
MEAN_ELEMENT_THEORY = SGP/SGP4

EPOCH          = 2026-01-13T03:18:43.429824
MEAN_MOTION    = 15.36179867
ECCENTRICITY   = .000654
INCLINATION    = 51.8713
RA_OF_ASC_NODE = 333.6817
ARG_OF_PERICENTER = 175.6841
MEAN_ANOMALY   = 184.4202

EPHEMERIS_TYPE = 0
CLASSIFICATION_TYPE = U
NORAD_CAT_ID   = 67133
ELEMENT_SET_NO = 999
REV_AT_EPOCH   = 519
BSTAR          = .63165E-3
MEAN_MOTION_DOT = .22306E-3
MEAN_MOTION_DDOT = 0

CCSDS_OMM_VERS = 2.0
CREATION_DATE  = 
ORIGINATOR     = 

OBJECT_NAME    = KUIPER-00164
OBJECT_ID      = 2025-301B
CENTER_NAME    = EARTH
REF_FRAME      = TEME
TIME_SYSTEM    = UTC
MEAN_ELEMENT_THEORY = SGP/SGP4

EPOCH          = 2026-01-13T03:01:48.687744
MEAN_MOTION    = 15.36681435
ECCENTRICITY   = .0002963
INCLINATION    = 51.8728
RA_OF_ASC_NODE = 333.6080
ARG_OF_PERICENTER = 157.3871
MEAN_ANOMALY   = 202.7247

EPHEMERIS_TYPE = 0
CLASSIFICATION_TYPE = U
NORAD_CAT_ID   = 67134
ELEMENT_SET_NO = 999
REV_AT_EPOCH   = 537
BSTAR          = .40355E-3
MEAN_MOTION_DOT = .14323E-3
MEAN_MOTION_DDOT = 0

CCSDS_OMM_VERS = 2.0
CREATION_DATE  = 
ORIGINATOR     = 

OBJECT_NAME    = KUIPER-00175
OBJECT_ID      = 2025-301C
CENTER_NAME    = EARTH
REF_FRAME      = TEME
TIME_SYSTEM    = UTC
MEAN_ELEMENT_THEORY = SGP/SGP4

EPOCH          = 2026-01-13T04:22:04.303200
MEAN_MOTION    = 15.37288652
ECCENTRICITY   = .0003032
INCLINATION    = 51.8748
RA_OF_ASC_NODE = 333.2308
ARG_OF_PERICENTER = 106.0790
MEAN_ANOMALY   = 254.0530

EPHEMERIS_TYPE = 0
CLASSIFICATION_TYPE = U
NORAD_CAT_ID   = 67135
ELEMENT_SET_NO = 999
REV_AT_EPOCH   = 527
BSTAR          = .59982E-3
MEAN_MOTION_DOT = .21931E-3
MEAN_MOTION_DDOT = 0

CCSDS_OMM_VERS = 2.0
CREATION_DATE  = 
ORIGINATOR     = 

OBJECT_NAME    = KUIPER-00179
OBJECT_ID      = 2025-301D
CENTER_NAME    = EARTH
REF_FRAME      = TEME
TIME_SYSTEM    = UTC
MEAN_ELEMENT_THEORY = SGP/SGP4

EPOCH          = 2026-01-13T02:58:10.930368
MEAN_MOTION    = 15.36849116
ECCENTRICITY   = .0003399
INCLINATION    = 51.8749
RA_OF_ASC_NODE = 333.5909
ARG_OF_PERICENTER = 133.2231
MEAN_ANOMALY   = 226.9040

EPHEMERIS_TYPE = 0
CLASSIFICATION_TYPE = U
NORAD_CAT_ID   = 67136
ELEMENT_SET_NO = 999
REV_AT_EPOCH   = 537
BSTAR          = .49379E-3
MEAN_MOTION_DOT = .17718E-3
MEAN_MOTION_DDOT = 0

CCSDS_OMM_VERS = 2.0
CREATION_DATE  = 
ORIGINATOR     = 

OBJECT_NAME    = KUIPER-00181
OBJECT_ID      = 2025-301E
CENTER_NAME    = EARTH
REF_FRAME      = TEME
TIME_SYSTEM    = UTC
MEAN_ELEMENT_THEORY = SGP/SGP4

EPOCH          = 2026-01-13T03:47:31.617312
MEAN_MOTION    = 15.34863150
ECCENTRICITY   = .0010633
INCLINATION    = 51.8657
RA_OF_ASC_NODE = 333.8009
ARG_OF_PERICENTER = 201.7937
MEAN_ANOMALY   = 158.2598

EPHEMERIS_TYPE = 0
CLASSIFICATION_TYPE = U
NORAD_CAT_ID   = 67137
ELEMENT_SET_NO = 999
REV_AT_EPOCH   = 535
BSTAR          = .48524E-3
MEAN_MOTION_DOT = .16334E-3
MEAN_MOTION_DDOT = 0

CCSDS_OMM_VERS = 2.0
CREATION_DATE  = 
ORIGINATOR     = 

OBJECT_NAME    = KUIPER-00183
OBJECT_ID      = 2025-301F
CENTER_NAME    = EARTH
REF_FRAME      = TEME
TIME_SYSTEM    = UTC
MEAN_ELEMENT_THEORY = SGP/SGP4

EPOCH          = 2026-01-13T03:54:01.232064
MEAN_MOTION    = 15.34812188
ECCENTRICITY   = .0011511
INCLINATION    = 51.8625
RA_OF_ASC_NODE = 333.8242
ARG_OF_PERICENTER = 202.3231
MEAN_ANOMALY   = 157.7254

EPHEMERIS_TYPE = 0
CLASSIFICATION_TYPE = U
NORAD_CAT_ID   = 67138
ELEMENT_SET_NO = 999
REV_AT_EPOCH   = 536
BSTAR          = .65671E-3
MEAN_MOTION_DOT = .2223E-3
MEAN_MOTION_DDOT = 0

CCSDS_OMM_VERS = 2.0
CREATION_DATE  = 
ORIGINATOR     = 

OBJECT_NAME    = KUIPER-00184
OBJECT_ID      = 2025-301G
CENTER_NAME    = EARTH
REF_FRAME      = TEME
TIME_SYSTEM    = UTC
MEAN_ELEMENT_THEORY = SGP/SGP4

EPOCH          = 2026-01-13T03:45:05.039712
MEAN_MOTION    = 15.35123079
ECCENTRICITY   = .0009505
INCLINATION    = 51.8640
RA_OF_ASC_NODE = 333.7867
ARG_OF_PERICENTER = 200.8146
MEAN_ANOMALY   = 159.2454

EPHEMERIS_TYPE = 0
CLASSIFICATION_TYPE = U
NORAD_CAT_ID   = 67139
ELEMENT_SET_NO = 999
REV_AT_EPOCH   = 547
BSTAR          = .62377E-3
MEAN_MOTION_DOT = .21292E-3
MEAN_MOTION_DDOT = 0

CCSDS_OMM_VERS = 2.0
CREATION_DATE  = 
ORIGINATOR     = 

OBJECT_NAME    = KUIPER-00186
OBJECT_ID      = 2025-301H
CENTER_NAME    = EARTH
REF_FRAME      = TEME
TIME_SYSTEM    = UTC
MEAN_ELEMENT_THEORY = SGP/SGP4

EPOCH          = 2026-01-13T03:28:02.476704
MEAN_MOTION    = 15.35937935
ECCENTRICITY   = .0007978
INCLINATION    = 51.8705
RA_OF_ASC_NODE = 333.7218
ARG_OF_PERICENTER = 186.8007
MEAN_ANOMALY   = 173.2872

EPHEMERIS_TYPE = 0
CLASSIFICATION_TYPE = U
NORAD_CAT_ID   = 67140
ELEMENT_SET_NO = 999
REV_AT_EPOCH   = 519
BSTAR          = .59557E-3
MEAN_MOTION_DOT = .20847E-3
MEAN_MOTION_DDOT = 0

CCSDS_OMM_VERS = 2.0
CREATION_DATE  = 
ORIGINATOR     = 

OBJECT_NAME    = KUIPER-00187
OBJECT_ID      = 2025-301J
CENTER_NAME    = EARTH
REF_FRAME      = TEME
TIME_SYSTEM    = UTC
MEAN_ELEMENT_THEORY = SGP/SGP4

EPOCH          = 2026-01-13T04:00:04.999392
MEAN_MOTION    = 15.32867119
ECCENTRICITY   = .0005465
INCLINATION    = 51.8737
RA_OF_ASC_NODE = 333.5305
ARG_OF_PERICENTER = 175.1344
MEAN_ANOMALY   = 343.9338

EPHEMERIS_TYPE = 0
CLASSIFICATION_TYPE = U
NORAD_CAT_ID   = 67141
ELEMENT_SET_NO = 999
REV_AT_EPOCH   = 498
BSTAR          = .10548E-3
MEAN_MOTION_DOT = .3027E-4
MEAN_MOTION_DDOT = 0

CCSDS_OMM_VERS = 2.0
CREATION_DATE  = 
ORIGINATOR     = 

OBJECT_NAME    = KUIPER-00188
OBJECT_ID      = 2025-301K
CENTER_NAME    = EARTH
REF_FRAME      = TEME
TIME_SYSTEM    = UTC
MEAN_ELEMENT_THEORY = SGP/SGP4

EPOCH          = 2026-01-13T03:30:58.566816
MEAN_MOTION    = 15.35745550
ECCENTRICITY   = .0007454
INCLINATION    = 51.8724
RA_OF_ASC_NODE = 333.7370
ARG_OF_PERICENTER = 190.7079
MEAN_ANOMALY   = 169.3749

EPHEMERIS_TYPE = 0
CLASSIFICATION_TYPE = U
NORAD_CAT_ID   = 67142
ELEMENT_SET_NO = 999
REV_AT_EPOCH   = 519
BSTAR          = .72947E-3
MEAN_MOTION_DOT = .25474E-3
MEAN_MOTION_DDOT = 0

CCSDS_OMM_VERS = 2.0
CREATION_DATE  = 
ORIGINATOR     = 

OBJECT_NAME    = KUIPER-00191
OBJECT_ID      = 2025-301L
CENTER_NAME    = EARTH
REF_FRAME      = TEME
TIME_SYSTEM    = UTC
MEAN_ELEMENT_THEORY = SGP/SGP4

EPOCH          = 2026-01-13T01:52:15.250656
MEAN_MOTION    = 15.35947522
ECCENTRICITY   = .0006728
INCLINATION    = 51.8704
RA_OF_ASC_NODE = 334.0251
ARG_OF_PERICENTER = 185.8684
MEAN_ANOMALY   = 174.2225

EPHEMERIS_TYPE = 0
CLASSIFICATION_TYPE = U
NORAD_CAT_ID   = 67143
ELEMENT_SET_NO = 999
REV_AT_EPOCH   = 521
BSTAR          = .61979E-3
MEAN_MOTION_DOT = .21714E-3
MEAN_MOTION_DDOT = 0

CCSDS_OMM_VERS = 2.0
CREATION_DATE  = 
ORIGINATOR     = 

OBJECT_NAME    = KUIPER-00196
OBJECT_ID      = 2025-301M
CENTER_NAME    = EARTH
REF_FRAME      = TEME
TIME_SYSTEM    = UTC
MEAN_ELEMENT_THEORY = SGP/SGP4

EPOCH          = 2026-01-13T03:04:40.411200
MEAN_MOTION    = 15.36630342
ECCENTRICITY   = .0003818
INCLINATION    = 51.8747
RA_OF_ASC_NODE = 333.6210
ARG_OF_PERICENTER = 146.8273
MEAN_ANOMALY   = 213.2953

EPHEMERIS_TYPE = 0
CLASSIFICATION_TYPE = U
NORAD_CAT_ID   = 67144
ELEMENT_SET_NO = 999
REV_AT_EPOCH   = 519
BSTAR          = .64054E-3
MEAN_MOTION_DOT = .22952E-3
MEAN_MOTION_DDOT = 0

